[{"OBJECT_NAME":"YUNHAI-2 01F","OBJECT_ID":"2018-112G","EPOCH":"2026-03-09T22:32:39.167808","MEAN_MOTION":14.28981897,"ECCENTRICITY":0.00070201,"INCLINATION":50.0111,"RA_OF_ASC_NODE":288.9308,"ARG_OF_PERICENTER":341.2274,"MEAN_ANOMALY":18.8381,"EPHEMERIS_TYPE":0,"CLASSIFICATION_TYPE":"U","NORAD_CAT_ID":43915,"ELEMENT_SET_NO":999,"REV_AT_EPOCH":37411,"BSTAR":2.0666219e-5,"MEAN_MOTION_DOT":-1.09e-6,"MEAN_MOTION_DDOT":0},{"OBJECT_NAME":"RADARSAT-1","OBJECT_ID":"1995-059A","EPOCH":"2026-03-09T21:39:45.079776","MEAN_MOTION":14.32349306,"ECCENTRICITY":0.00010659,"INCLINATION":98.5507,"RA_OF_ASC_NODE":79.258,"ARG_OF_PERICENTER":74.248,"MEAN_ANOMALY":285.8821,"EPHEMERIS_TYPE":0,"CLASSIFICATION_TYPE":"U","NORAD_CAT_ID":23710,"ELEMENT_SET_NO":999,"REV_AT_EPOCH":58413,"BSTAR":0.00014061132,"MEAN_MOTION_DOT":3.36e-6,"MEAN_MOTION_DDOT":0}]
